COSMOS 2425 (716)       
1 29670U 06062A   21157.47623979 -.00000030  00000-0  00000-0 0  9995
2 29670  64.8451 255.8198 0023781 344.4533  24.6765  2.13117164112447
COSMOS 2433 (720)       
1 32275U 07052A   21158.30589660 -.00000061  00000-0  00000-0 0  9995
2 32275  66.0598  17.1220 0000822 277.5309 182.3205  2.13104129105979
COSMOS 2432 (719)       
1 32276U 07052B   21158.48568252 -.00000060  00000-0  00000+0 0  9997
2 32276  66.0745  17.2108 0010348 340.1840 206.9142  2.13103506105972
COSMOS 2434 (721)       
1 32393U 07065A   21158.16299881 -.00000019  00000-0  00000-0 0  9990
2 32393  64.4625 254.2592 0003026  99.9272 138.6673  2.13103074104670
COSMOS 2436 (723)       
1 32395U 07065C   21158.25393310 -.00000018  00000-0  00000-0 0  9993
2 32395  64.4723 254.3087 0014371   1.1500  83.3156  2.13103051104616
COSMOS 2456 (730)       
1 36111U 09070A   21158.02738917  .00000051  00000-0  00000-0 0  9998
2 36111  64.2760 133.9403 0006311 304.7287   0.5095  2.13099265 89333
COSMOS 2457 (733)       
1 36112U 09070B   21158.29351523  .00000048  00000-0  00000-0 0  9998
2 36112  64.2589 133.8161 0004339 196.5062  77.1952  2.13101444 89345
COSMOS 2459 (731)       
1 36400U 10007A   21158.13166418 -.00000061  00000-0  00000-0 0  9996
2 36400  65.9572  16.0534 0026037 351.9550 191.5544  2.13108368 87684
COSMOS 2461 (735)       
1 36401U 10007B   21157.19424439 -.00000065  00000-0  00000+0 0  9995
2 36401  65.9510  16.0493 0021349  11.4398 173.5582  2.13103842 87673
COSMOS 2460 (732)       
1 36402U 10007C   21158.19834492 -.00000061  00000-0  00000-0 0  9998
2 36402  65.9404  15.9714 0002262  66.9095 113.0914  2.13106603 87690
COSMOS 2464 (736)       
1 37139U 10041C   21158.59272177 -.00000012  00000-0  00000-0 0  9990
2 37139  64.0637 253.5064 0027282  11.1346  58.1212  2.13100724 83766
COSMOS 2471 (701K)      
1 37372U 11009A   21157.99728926 -.00000062  00000-0  00000+0 0  9999
2 37372  65.9299  15.9070 0014389 227.3080 310.9211  2.13052242 79962
COSMOS 2476 (744)       
1 37867U 11064A   21158.63394791  .00000049  00000-0  00000+0 0  9994
2 37867  64.5718 135.1304 0022217 241.9346  70.9086  2.13101879 74692
COSMOS 2477 (745)       
1 37868U 11064B   21158.36250900  .00000051  00000-0  00000-0 0  9992
2 37868  64.5787 135.1982 0019808 243.8623  39.0623  2.13101706 74649
COSMOS 2475 (743)       
1 37869U 11064C   21158.28772074  .00000052  00000-0  00000-0 0  9996
2 37869  64.5859 135.2060 0024322 261.1232 282.0996  2.13101983 74655
COSMOS 2485 (747)       
1 39155U 13019A   21158.49624394  .00000051  00000-0  00000-0 0  9991
2 39155  64.7369 135.4803 0022675 238.1038  13.5630  2.13101930 63165
COSMOS 2492 (754)       
1 39620U 14012A   21158.27844234 -.00000061  00000-0  00000-0 0  9997
2 39620  65.8277  15.7035 0013168 333.4479 145.9538  2.13103224 56116
COSMOS 2500 (755)       
1 40001U 14032A   21158.49983297 -.00000060  00000-0  00000-0 0  9990
2 40001  65.7694  15.5838 0004822 184.3366 324.5815  2.13102621 54332
COSMOS 2501 (702K)      
1 40315U 14075A   21158.51590009 -.00000015  00000-0  00000-0 0  9993
2 40315  63.7748 254.3199 0017463 208.6010 118.9504  2.13101469 50731
COSMOS 2514 (751)       
1 41330U 16008A   21158.54831869 -.00000061  00000-0  00000-0 0  9995
2 41330  65.5695  15.3683 0007846 206.9013 162.3203  2.13102873 41505
COSMOS 2516 (753)       
1 41554U 16032A   21158.09082716 -.00000021  00000-0  00000-0 0  9995
2 41554  63.9993 254.5065 0013682 215.1150  58.1146  2.13107044 39090
COSMOS 2522 (752)       
1 42939U 17055A   21158.38464527 -.00000017  00000-0  00000-0 0  9990
2 42939  64.2327 254.7813 0007436 241.9930 119.9088  2.13101920 28860
COSMOS 2527 (756)       
1 43508U 18053A   21158.59551922  .00000050  00000-0  00000-0 0  9997
2 43508  64.9013 135.3987 0009378 243.3805 312.3815  2.13102547 23152
COSMOS 2529 (757)       
1 43687U 18086A   21158.61881163 -.00000014  00000-0  00000+0 0  9997
2 43687  64.4471 254.9873 0009297 266.7761 230.3280  2.13102073 20173
COSMOS 2534 (758)       
1 44299U 19030A   21158.56382287 -.00000015  00000-0  00000-0 0  9996
2 44299  64.5183 254.8399 0012190 287.9677 301.7946  2.13102066 15812
COSMOS 2544 (759)       
1 44850U 19088A   21158.50454036  .00000050  00000-0  00000-0 0  9996
2 44850  64.8873 135.2623 0014130 266.3355 263.3980  2.13102232 11593
COSMOS 2545 (760)       
1 45358U 20018A   21158.03048830 -.00000065  00000-0  00000-0 0  9991
2 45358  64.9033  16.3040 0006872 254.3764 121.7025  2.13102725  9538
